ONEWEB-0637             
1 56078U 23043AJ  25286.32383997 -.00000091  00000+0 -27672-3 0  9993
2 56078  87.8974 308.4890 0001923  84.3456 275.7894 13.15548475123975
ONEWEB-0647             
1 56079U 23043AK  25286.31910111 -.00000118  00000+0 -34631-3 0  9990
2 56079  87.8976 308.5033 0001682  96.1113 264.0209 13.15546747123961
ONEWEB-0651             
1 56080U 23043AL  25286.31434674 -.00000080  00000+0 -24595-3 0  9993
2 56080  87.8979 308.4965 0001717  85.4421 274.6906 13.15549544125164
ONEWEB-0718             
1 56081U 23043AM  25286.30960475  .00000021  00000+0  22198-4 0  9997
2 56081  87.8979 308.4781 0002424  93.5150 266.6258 13.15546691123974
ONEWEB-0561             
1 56710U 23068A   25286.15487706  .00000122  00000+0  26922-3 0  9997
2 56710  87.9216 323.7192 0001410  95.5196 264.6098 13.20772806116898
ONEWEB-0668             
1 56711U 23068B   25286.23851984  .00000064  00000+0  13284-3 0  9992
2 56711  87.8984 277.9624 0002384  83.2874 276.8528 13.16596649119281
ONEWEB-0676             
1 56712U 23068C   25286.21873919  .00000013  00000+0 -26705-6 0  9993
2 56712  87.8975 277.9824 0001724  87.0010 273.1318 13.16595497119204
ONEWEB-0677             
1 56713U 23068D   25286.14383732  .00000019  00000+0  14102-4 0  9996
2 56713  87.9218 323.6988 0001806  89.6436 270.4904 13.20769861117197
ONEWEB-0678             
1 56714U 23068E   25286.12579385  .00000219  00000+0  54744-3 0  9993
2 56714  87.8974 308.4885 0001686 103.7415 256.3903 13.15547513116805
ONEWEB-0679             
1 56715U 23068F   25286.33336806  .00038781  00000+0  10101+0 0  9996
2 56715  87.8981 277.9456 0002030  72.9382 304.6447 13.16574272  5138
ONEWEB-0680             
1 56716U 23068G   25286.25108640  .00000070  00000+0  13885-3 0  9997
2 56716  87.9165 293.2322 0002405  81.1198 279.0208 13.21880792118475
ONEWEB-0681             
1 56717U 23068H   25286.30524769  .00000152  00000+0  33737-3 0  9997
2 56717  87.9167 293.2393 0001160  59.5809 300.5439 13.21744466118474
ONEWEB-0682             
1 56718U 23068J   25286.30404048  .00000015  00000+0  46344-5 0  9993
2 56718  87.8976 308.4709 0002195  83.2278 276.9102 13.15546608116994
ONEWEB-0683             
1 56719U 23068K   25286.32544267 -.00000024  00000+0 -97191-4 0  9991
2 56719  87.8977 308.4466 0002081  89.6970 270.4399 13.15546666116967
ONEWEB-0684             
1 56720U 23068L   25286.33336481 -.00000014  00000+0 -71695-4 0  9991
2 56720  87.8971 308.4409 0002417 129.9047 230.2297 13.15547688116793
ONEWEB-0686             
1 56721U 23068M   25286.25355629  .00000042  00000+0  74909-4 0  9998
2 56721  87.8964 277.9955 0002197  90.8124 269.3258 13.16593934119226
