[{"OBJECT_NAME":"ONEWEB-0637","OBJECT_ID":"2023-043AJ","EPOCH":"2025-10-13T07:46:19.773408","MEAN_MOTION":13.15548475,"ECCENTRICITY":0.00019239,"INCLINATION":87.8974,"RA_OF_ASC_NODE":308.489,"ARG_OF_PERICENTER":84.3456,"MEAN_ANOMALY":275.7894,"EPHEMERIS_TYPE":0,"CLASSIFICATION_TYPE":"U","NORAD_CAT_ID":56078,"ELEMENT_SET_NO":999,"REV_AT_EPOCH":12397,"BSTAR":-0.00027671946,"MEAN_MOTION_DOT":-9.1e-7,"MEAN_MOTION_DDOT":0},{"OBJECT_NAME":"ONEWEB-0647","OBJECT_ID":"2023-043AK","EPOCH":"2025-10-13T07:39:30.335904","MEAN_MOTION":13.15546747,"ECCENTRICITY":0.0001682,"INCLINATION":87.8976,"RA_OF_ASC_NODE":308.5033,"ARG_OF_PERICENTER":96.1113,"MEAN_ANOMALY":264.0209,"EPHEMERIS_TYPE":0,"CLASSIFICATION_TYPE":"U","NORAD_CAT_ID":56079,"ELEMENT_SET_NO":999,"REV_AT_EPOCH":12396,"BSTAR":-0.00034630538,"MEAN_MOTION_DOT":-1.18e-6,"MEAN_MOTION_DDOT":0},{"OBJECT_NAME":"ONEWEB-0651","OBJECT_ID":"2023-043AL","EPOCH":"2025-10-13T07:32:39.558336","MEAN_MOTION":13.15549544,"ECCENTRICITY":0.0001717,"INCLINATION":87.8979,"RA_OF_ASC_NODE":308.4965,"ARG_OF_PERICENTER":85.4421,"MEAN_ANOMALY":274.6906,"EPHEMERIS_TYPE":0,"CLASSIFICATION_TYPE":"U","NORAD_CAT_ID":56080,"ELEMENT_SET_NO":999,"REV_AT_EPOCH":12516,"BSTAR":-0.00024595481,"MEAN_MOTION_DOT":-8.0e-7,"MEAN_MOTION_DDOT":0},{"OBJECT_NAME":"ONEWEB-0718","OBJECT_ID":"2023-043AM","EPOCH":"2025-10-13T07:25:49.850400","MEAN_MOTION":13.15546691,"ECCENTRICITY":0.00024243,"INCLINATION":87.8979,"RA_OF_ASC_NODE":308.4781,"ARG_OF_PERICENTER":93.515,"MEAN_ANOMALY":266.6258,"EPHEMERIS_TYPE":0,"CLASSIFICATION_TYPE":"U","NORAD_CAT_ID":56081,"ELEMENT_SET_NO":999,"REV_AT_EPOCH":12397,"BSTAR":2.2198251e-5,"MEAN_MOTION_DOT":2.1e-7,"MEAN_MOTION_DDOT":0},{"OBJECT_NAME":"ONEWEB-0561","OBJECT_ID":"2023-068A","EPOCH":"2025-10-13T03:43:01.377984","MEAN_MOTION":13.20772806,"ECCENTRICITY":0.00014108,"INCLINATION":87.9216,"RA_OF_ASC_NODE":323.7192,"ARG_OF_PERICENTER":95.5196,"MEAN_ANOMALY":264.6098,"EPHEMERIS_TYPE":0,"CLASSIFICATION_TYPE":"U","NORAD_CAT_ID":56710,"ELEMENT_SET_NO":999,"REV_AT_EPOCH":11689,"BSTAR":0.00026922221,"MEAN_MOTION_DOT":1.22e-6,"MEAN_MOTION_DDOT":0},{"OBJECT_NAME":"ONEWEB-0668","OBJECT_ID":"2023-068B","EPOCH":"2025-10-13T05:43:28.114176","MEAN_MOTION":13.16596649,"ECCENTRICITY":0.00023847,"INCLINATION":87.8984,"RA_OF_ASC_NODE":277.9624,"ARG_OF_PERICENTER":83.2874,"MEAN_ANOMALY":276.8528,"EPHEMERIS_TYPE":0,"CLASSIFICATION_TYPE":"U","NORAD_CAT_ID":56711,"ELEMENT_SET_NO":999,"REV_AT_EPOCH":11928,"BSTAR":0.00013284429,"MEAN_MOTION_DOT":6.4e-7,"MEAN_MOTION_DDOT":0},{"OBJECT_NAME":"ONEWEB-0676","OBJECT_ID":"2023-068C","EPOCH":"2025-10-13T05:14:59.066016","MEAN_MOTION":13.16595497,"ECCENTRICITY":0.00017242,"INCLINATION":87.8975,"RA_OF_ASC_NODE":277.9824,"ARG_OF_PERICENTER":87.001,"MEAN_ANOMALY":273.1318,"EPHEMERIS_TYPE":0,"CLASSIFICATION_TYPE":"U","NORAD_CAT_ID":56712,"ELEMENT_SET_NO":999,"REV_AT_EPOCH":11920,"BSTAR":-2.67046e-7,"MEAN_MOTION_DOT":1.3e-7,"MEAN_MOTION_DDOT":0},{"OBJECT_NAME":"ONEWEB-0677","OBJECT_ID":"2023-068D","EPOCH":"2025-10-13T03:27:07.544448","MEAN_MOTION":13.20769861,"ECCENTRICITY":0.00018066,"INCLINATION":87.9218,"RA_OF_ASC_NODE":323.6988,"ARG_OF_PERICENTER":89.6436,"MEAN_ANOMALY":270.4904,"EPHEMERIS_TYPE":0,"CLASSIFICATION_TYPE":"U","NORAD_CAT_ID":56713,"ELEMENT_SET_NO":999,"REV_AT_EPOCH":11719,"BSTAR":1.410171e-5,"MEAN_MOTION_DOT":1.9e-7,"MEAN_MOTION_DDOT":0},{"OBJECT_NAME":"ONEWEB-0678","OBJECT_ID":"2023-068E","EPOCH":"2025-10-13T03:01:08.588640","MEAN_MOTION":13.15547513,"ECCENTRICITY":0.00016869,"INCLINATION":87.8974,"RA_OF_ASC_NODE":308.4885,"ARG_OF_PERICENTER":103.7415,"MEAN_ANOMALY":256.3903,"EPHEMERIS_TYPE":0,"CLASSIFICATION_TYPE":"U","NORAD_CAT_ID":56714,"ELEMENT_SET_NO":999,"REV_AT_EPOCH":11680,"BSTAR":0.00054743794,"MEAN_MOTION_DOT":2.19e-6,"MEAN_MOTION_DDOT":0},{"OBJECT_NAME":"ONEWEB-0679","OBJECT_ID":"2023-068F","EPOCH":"2025-10-13T08:00:03.000384","MEAN_MOTION":13.16574272,"ECCENTRICITY":0.00020302,"INCLINATION":87.8981,"RA_OF_ASC_NODE":277.9456,"ARG_OF_PERICENTER":72.9382,"MEAN_ANOMALY":304.6447,"EPHEMERIS_TYPE":0,"CLASSIFICATION_TYPE":"U","NORAD_CAT_ID":56715,"ELEMENT_SET_NO":999,"REV_AT_EPOCH":513,"BSTAR":0.10101151,"MEAN_MOTION_DOT":0.00038781,"MEAN_MOTION_DDOT":0},{"OBJECT_NAME":"ONEWEB-0680","OBJECT_ID":"2023-068G","EPOCH":"2025-10-13T06:01:33.864960","MEAN_MOTION":13.21880792,"ECCENTRICITY":0.00024052,"INCLINATION":87.9165,"RA_OF_ASC_NODE":293.2322,"ARG_OF_PERICENTER":81.1198,"MEAN_ANOMALY":279.0208,"EPHEMERIS_TYPE":0,"CLASSIFICATION_TYPE":"U","NORAD_CAT_ID":56716,"ELEMENT_SET_NO":999,"REV_AT_EPOCH":11847,"BSTAR":0.00013885337,"MEAN_MOTION_DOT":7.0e-7,"MEAN_MOTION_DDOT":0},{"OBJECT_NAME":"ONEWEB-0681","OBJECT_ID":"2023-068H","EPOCH":"2025-10-13T07:19:33.400416","MEAN_MOTION":13.21744466,"ECCENTRICITY":0.000116,"INCLINATION":87.9167,"RA_OF_ASC_NODE":293.2393,"ARG_OF_PERICENTER":59.5809,"MEAN_ANOMALY":300.5439,"EPHEMERIS_TYPE":0,"CLASSIFICATION_TYPE":"U","NORAD_CAT_ID":56717,"ELEMENT_SET_NO":999,"REV_AT_EPOCH":11847,"BSTAR":0.00033737169,"MEAN_MOTION_DOT":1.52e-6,"MEAN_MOTION_DDOT":0},{"OBJECT_NAME":"ONEWEB-0682","OBJECT_ID":"2023-068J","EPOCH":"2025-10-13T07:17:49.097472","MEAN_MOTION":13.15546608,"ECCENTRICITY":0.00021951,"INCLINATION":87.8976,"RA_OF_ASC_NODE":308.4709,"ARG_OF_PERICENTER":83.2278,"MEAN_ANOMALY":276.9102,"EPHEMERIS_TYPE":0,"CLASSIFICATION_TYPE":"U","NORAD_CAT_ID":56718,"ELEMENT_SET_NO":999,"REV_AT_EPOCH":11699,"BSTAR":4.634414e-6,"MEAN_MOTION_DOT":1.5e-7,"MEAN_MOTION_DDOT":0},{"OBJECT_NAME":"ONEWEB-0683","OBJECT_ID":"2023-068K","EPOCH":"2025-10-13T07:48:38.246688","MEAN_MOTION":13.15546666,"ECCENTRICITY":0.00020811,"INCLINATION":87.8977,"RA_OF_ASC_NODE":308.4466,"ARG_OF_PERICENTER":89.697,"MEAN_ANOMALY":270.4399,"EPHEMERIS_TYPE":0,"CLASSIFICATION_TYPE":"U","NORAD_CAT_ID":56719,"ELEMENT_SET_NO":999,"REV_AT_EPOCH":11696,"BSTAR":-9.7191129e-5,"MEAN_MOTION_DOT":-2.4e-7,"MEAN_MOTION_DDOT":0},{"OBJECT_NAME":"ONEWEB-0684","OBJECT_ID":"2023-068L","EPOCH":"2025-10-13T08:00:02.719584","MEAN_MOTION":13.15547688,"ECCENTRICITY":0.00024172,"INCLINATION":87.8971,"RA_OF_ASC_NODE":308.4409,"ARG_OF_PERICENTER":129.9047,"MEAN_ANOMALY":230.2297,"EPHEMERIS_TYPE":0,"CLASSIFICATION_TYPE":"U","NORAD_CAT_ID":56720,"ELEMENT_SET_NO":999,"REV_AT_EPOCH":11679,"BSTAR":-7.1695392e-5,"MEAN_MOTION_DOT":-1.4e-7,"MEAN_MOTION_DDOT":0},{"OBJECT_NAME":"ONEWEB-0686","OBJECT_ID":"2023-068M","EPOCH":"2025-10-13T06:05:07.263456","MEAN_MOTION":13.16593934,"ECCENTRICITY":0.00021976,"INCLINATION":87.8964,"RA_OF_ASC_NODE":277.9955,"ARG_OF_PERICENTER":90.8124,"MEAN_ANOMALY":269.3258,"EPHEMERIS_TYPE":0,"CLASSIFICATION_TYPE":"U","NORAD_CAT_ID":56721,"ELEMENT_SET_NO":999,"REV_AT_EPOCH":11922,"BSTAR":7.4908733e-5,"MEAN_MOTION_DOT":4.2e-7,"MEAN_MOTION_DDOT":0}]
